{
"type": "FeatureCollection",
"name": "Biovaletas",
"crs": { "type": "name", "properties": { "name": "urn:ogc:def:crs:OGC:1.3:CRS84" } },
"features": [
{ "type": "Feature", "properties": { "fid": 1 }, "geometry": { "type": "LineString", "coordinates": [ [ -46.020751958168134, -23.796337970443915 ], [ -46.020776210629087, -23.796206287727596 ], [ -46.020770373559181, -23.796035517385718 ], [ -46.020753896374963, -23.795910021792086 ], [ -46.020704968755886, -23.795776755019173 ], [ -46.020656124474463, -23.795635537684351 ], [ -46.020567606531635, -23.795496774982617 ], [ -46.020408631491058, -23.795339146429612 ], [ -46.020115799390723, -23.795149461106259 ], [ -46.019918735240765, -23.79498868790574 ], [ -46.019825745831682, -23.79488870601994 ], [ -46.019646351622022, -23.794642495942455 ], [ -46.019551723007361, -23.794456438386071 ], [ -46.01949971335911, -23.794326417845411 ], [ -46.019467512514368, -23.79414933304863 ], [ -46.019482541002958, -23.793782304181672 ], [ -46.01952318593024, -23.793638606230985 ], [ -46.019619867436433, -23.79343460146055 ], [ -46.020083960683628, -23.792268476088921 ] ] } },
{ "type": "Feature", "properties": { "fid": 2 }, "geometry": { "type": "LineString", "coordinates": [ [ -46.02306973552556, -23.793334205250979 ], [ -46.02300747922849, -23.793454794346601 ], [ -46.022951835006957, -23.793574974212362 ], [ -46.022847461688634, -23.793737285511117 ], [ -46.022509803148516, -23.794042993370539 ], [ -46.022302771268834, -23.794154816996514 ], [ -46.021928737857074, -23.794244581711649 ], [ -46.021660442041011, -23.794236125064998 ], [ -46.021363947452222, -23.794250804233606 ], [ -46.021209809421002, -23.794213891655914 ], [ -46.020775956068896, -23.794094051679899 ], [ -46.01983646152302, -23.793817248887546 ], [ -46.01950286347703, -23.793710455207616 ] ] } },
{ "type": "Feature", "properties": { "fid": 3 }, "geometry": { "type": "LineString", "coordinates": [ [ -46.022477853807985, -23.794060250120367 ], [ -46.022397623845272, -23.794271184107629 ], [ -46.022360456298735, -23.794471507832309 ], [ -46.022355464466351, -23.794803078580959 ], [ -46.02238308528495, -23.794981057482698 ], [ -46.022362974059988, -23.795105761224388 ], [ -46.022336944611162, -23.795213106853986 ], [ -46.022239821527066, -23.795411028857092 ], [ -46.022102749730024, -23.795734882039863 ], [ -46.021929839140846, -23.796131850114641 ], [ -46.021720478163914, -23.796611749722452 ], [ -46.02154189669664, -23.79696750765363 ], [ -46.021419879504386, -23.797261091721502 ], [ -46.021310805379969, -23.797386410428928 ], [ -46.021086460123136, -23.797597704071627 ], [ -46.020612844374348, -23.797924654223916 ], [ -46.020330457149207, -23.798096143729286 ] ] } },
{ "type": "Feature", "properties": { "fid": 4 }, "geometry": { "type": "LineString", "coordinates": [ [ -46.020185945584814, -23.791946184235922 ], [ -46.020390526682718, -23.791437245316104 ], [ -46.020546822065882, -23.790976521211181 ], [ -46.020666168423858, -23.790646431723665 ], [ -46.020750178245912, -23.790487215363655 ], [ -46.020885695570826, -23.790360260670287 ], [ -46.021046438660981, -23.790251302902295 ], [ -46.02123857492623, -23.790153848520948 ], [ -46.021493497789727, -23.790079400904645 ], [ -46.021699970565813, -23.790069069370695 ], [ -46.021989120638949, -23.790026729287646 ], [ -46.022241432684446, -23.790007448578898 ], [ -46.022736938481735, -23.789771426409448 ] ] } },
{ "type": "Feature", "properties": { "fid": 5 }, "geometry": { "type": "LineString", "coordinates": [ [ -46.01823620610336, -23.791260037811444 ], [ -46.018516693334625, -23.790880866675138 ], [ -46.018808958483774, -23.790444737449597 ], [ -46.018998207492231, -23.790235006660819 ], [ -46.019180732688312, -23.78998779815878 ], [ -46.019263688269561, -23.789832314960368 ], [ -46.019317306075173, -23.789566188780324 ], [ -46.019304859563235, -23.789395827207613 ], [ -46.019268520766417, -23.789080259498824 ], [ -46.019124168344327, -23.788886276475687 ], [ -46.018917919534545, -23.788681453926404 ], [ -46.018554373752131, -23.78845091279085 ], [ -46.017951910469797, -23.788222925668691 ], [ -46.017504133999068, -23.788075823781863 ], [ -46.017363311574137, -23.788030138563219 ], [ -46.017319112337141, -23.787979699343406 ], [ -46.017210740471839, -23.787796324029497 ], [ -46.017194906496194, -23.787706848139415 ], [ -46.017138124198553, -23.787547785204453 ], [ -46.017023641877309, -23.787317115348575 ] ] } },
{ "type": "Feature", "properties": { "fid": 6 }, "geometry": { "type": "LineString", "coordinates": [ [ -46.017363311574137, -23.788030138563219 ], [ -46.017316998920542, -23.788132626058733 ], [ -46.017285410242941, -23.788236647580234 ], [ -46.017241985159522, -23.788451414296315 ], [ -46.017206311113512, -23.78865408909142 ], [ -46.017084846025469, -23.788991641025312 ], [ -46.016970549560867, -23.789227292941629 ], [ -46.016759736457736, -23.789651046864094 ], [ -46.016665164510336, -23.78984758520086 ], [ -46.016576873044144, -23.789930054863984 ], [ -46.016479025696576, -23.789954441820036 ], [ -46.016294389730746, -23.78991818826923 ], [ -46.015895616257559, -23.789750937915322 ], [ -46.015570354567188, -23.78955347091809 ], [ -46.01546956796215, -23.789373903657239 ], [ -46.01530027696127, -23.789038442401282 ], [ -46.015054265124121, -23.788361795178794 ], [ -46.014852423151602, -23.787835212254457 ], [ -46.014731086620664, -23.787483339084321 ], [ -46.014679304449281, -23.787429089738726 ], [ -46.014619854597328, -23.787378981601496 ], [ -46.014544625057937, -23.787331071522491 ], [ -46.014473367951226, -23.787292083535849 ], [ -46.014408027631333, -23.787270453993653 ], [ -46.014347631884945, -23.787261964731197 ], [ -46.014253565047667, -23.787265336322719 ], [ -46.01408687684755, -23.787311091470048 ], [ -46.013921353978745, -23.787391000663025 ], [ -46.013815589204299, -23.787443378761996 ], [ -46.013631698358786, -23.787626490950597 ], [ -46.013566351857321, -23.787750323113077 ], [ -46.013531341669356, -23.787889392789712 ], [ -46.013535835768657, -23.788041910810595 ], [ -46.013547297677711, -23.788981202335751 ], [ -46.013597233167339, -23.789355826349741 ] ] } },
{ "type": "Feature", "properties": { "fid": 7 }, "geometry": { "type": "LineString", "coordinates": [ [ -46.018040008712234, -23.791501978919801 ], [ -46.017881788871421, -23.791709177943698 ], [ -46.017677922281443, -23.791955260015904 ], [ -46.017544011076509, -23.792122450517056 ], [ -46.017413433694259, -23.792262542605066 ], [ -46.017283022921987, -23.792386733491373 ], [ -46.017188896284289, -23.792443894637298 ], [ -46.016953692042172, -23.79247922196808 ], [ -46.016744381390531, -23.7924689422866 ], [ -46.016501899514026, -23.792422820417645 ], [ -46.016253751068142, -23.792335488128842 ], [ -46.015543591291326, -23.792051810863711 ], [ -46.014831494563282, -23.791614231945601 ], [ -46.014532510888422, -23.791431028592338 ], [ -46.014276200988668, -23.791250075596903 ], [ -46.014028558013038, -23.791115036257313 ], [ -46.013866815186475, -23.791028469638071 ], [ -46.013714742639557, -23.790892410301176 ], [ -46.013663571066459, -23.790828343923199 ], [ -46.013654351143202, -23.79073845882894 ], [ -46.013643338020493, -23.789659789902299 ] ] } },
{ "type": "Feature", "properties": { "fid": 8 }, "geometry": { "type": "LineString", "coordinates": [ [ -46.011450871958743, -23.78866830618492 ], [ -46.011350912634057, -23.788700154630018 ], [ -46.011305625821073, -23.788753070926163 ], [ -46.011251724005568, -23.788851747268595 ], [ -46.011139528803682, -23.789079930489752 ], [ -46.010930473206749, -23.789528014605686 ], [ -46.010851445931117, -23.789792040824597 ], [ -46.010712465615796, -23.790053660738113 ], [ -46.010632835082589, -23.790182041474154 ], [ -46.01054065109907, -23.790247635022759 ], [ -46.010428354393284, -23.790292469014691 ], [ -46.010304224883342, -23.790302585641317 ], [ -46.010177262998795, -23.790292097001334 ], [ -46.00999473992367, -23.790248371150547 ], [ -46.009856113310477, -23.790187263802899 ], [ -46.009787278922424, -23.790063169505739 ], [ -46.009741725035468, -23.789948637701595 ], [ -46.009172211212785, -23.788333639785364 ], [ -46.009107938202625, -23.788162813418321 ], [ -46.009032601896564, -23.788077013951188 ], [ -46.008890089978721, -23.787999032776728 ], [ -46.008723242311525, -23.787915221119114 ], [ -46.008525891003373, -23.787832071869229 ], [ -46.008223588551232, -23.787675953801074 ], [ -46.008166144993531, -23.787580491736268 ], [ -46.008187264918952, -23.787505844755454 ], [ -46.008224524687328, -23.787443035293737 ], [ -46.00837539938064, -23.787162347134952 ] ] } },
{ "type": "Feature", "properties": { "fid": 9 }, "geometry": { "type": "LineString", "coordinates": [ [ -46.017105914677558, -23.796427220651715 ], [ -46.016822307246713, -23.796327413761091 ], [ -46.01623836746073, -23.79617161558911 ], [ -46.015731832520274, -23.796002472034612 ], [ -46.015417113567715, -23.795767681471993 ], [ -46.015259701403231, -23.795558611733458 ], [ -46.015120854769215, -23.795130812607567 ], [ -46.015055074339983, -23.794812175406495 ], [ -46.014969734626135, -23.794516750214569 ], [ -46.014844273014511, -23.794363155655809 ], [ -46.014587455158313, -23.794229906764834 ], [ -46.014292072535923, -23.794187052313351 ], [ -46.013747034023339, -23.794199970995724 ], [ -46.013517156788794, -23.794308305573193 ], [ -46.013363845254744, -23.794482803437376 ], [ -46.013036373293055, -23.795073893676904 ], [ -46.012710340558122, -23.795721122952067 ] ] } },
{ "type": "Feature", "properties": { "fid": 10 }, "geometry": { "type": "LineString", "coordinates": [ [ -46.009396062581942, -23.794959083901418 ], [ -46.009382089608287, -23.794549232757436 ], [ -46.009320449668607, -23.794032314464008 ], [ -46.00925235523173, -23.793645365708649 ], [ -46.009190933024428, -23.79320422052502 ], [ -46.009049541846409, -23.792923257506057 ], [ -46.008788627777946, -23.792697352543474 ], [ -46.008582772591026, -23.792552388081219 ], [ -46.008302011691875, -23.792473170173434 ], [ -46.007983905919708, -23.792464711729703 ], [ -46.00765401560264, -23.792513209551132 ], [ -46.00732983640885, -23.792694591554909 ], [ -46.007166461903857, -23.792858703559016 ], [ -46.006988900917293, -23.79321071364512 ], [ -46.006924984987783, -23.793390683044304 ], [ -46.00672713510582, -23.794411357237525 ] ] } },
{ "type": "Feature", "properties": { "fid": 11 }, "geometry": { "type": "LineString", "coordinates": [ [ -46.007166461903857, -23.792858703559016 ], [ -46.006899188023901, -23.792946113769247 ], [ -46.006705428693003, -23.793003312054399 ], [ -46.006521678514112, -23.79297921566879 ], [ -46.005769351426807, -23.792790998600776 ], [ -46.005530713731787, -23.792670057845154 ], [ -46.003560146593777, -23.791460619908094 ], [ -46.003205067855603, -23.791200183465747 ] ] } },
{ "type": "Feature", "properties": { "fid": 12 }, "geometry": { "type": "LineString", "coordinates": [ [ -46.030080463170748, -23.791499942149201 ], [ -46.029635585461726, -23.791756077717846 ], [ -46.029399063263604, -23.791918632360353 ], [ -46.029173260134449, -23.7920279608824 ], [ -46.028803895658193, -23.792353982159035 ], [ -46.02868045002657, -23.792591432120076 ], [ -46.028384841150022, -23.793253926297179 ], [ -46.02795067330463, -23.794237926008947 ], [ -46.027892953418473, -23.794411409380004 ], [ -46.027881508778158, -23.794436565414951 ] ] } },
{ "type": "Feature", "properties": { "fid": 13 }, "geometry": { "type": "LineString", "coordinates": [ [ -46.031882873055658, -23.795464297936093 ], [ -46.031919085705532, -23.795305591297243 ], [ -46.031901262580099, -23.795161844407009 ], [ -46.031836213535556, -23.795062583504979 ], [ -46.031759720666024, -23.794988478867598 ], [ -46.031618358550325, -23.794944673369081 ], [ -46.031218280451149, -23.79485088489329 ], [ -46.030939333406778, -23.794742258537259 ], [ -46.030735333130188, -23.794514086875829 ], [ -46.030627464723992, -23.794328855730459 ], [ -46.03059684339329, -23.793656003724777 ], [ -46.030582981160009, -23.792740084260203 ], [ -46.030531673304964, -23.792492676076556 ], [ -46.030393632944481, -23.792276309508321 ], [ -46.030255656581616, -23.792151616668871 ], [ -46.030067784744084, -23.7920349034009 ], [ -46.029866027665875, -23.791982613131445 ], [ -46.029663049949491, -23.791949956127258 ], [ -46.029399063263604, -23.791918632360353 ] ] } },
{ "type": "Feature", "properties": { "fid": 14 }, "geometry": { "type": "LineString", "coordinates": [ [ -46.036333879094379, -23.794013207205388 ], [ -46.034008220714803, -23.795943204021007 ] ] } },
{ "type": "Feature", "properties": { "fid": 15 }, "geometry": { "type": "LineString", "coordinates": [ [ -46.037736438596383, -23.795325284003422 ], [ -46.037363441419643, -23.795020807158057 ], [ -46.037020622103576, -23.794747463130125 ], [ -46.036782118296713, -23.794610670820749 ], [ -46.036585795527962, -23.794523825974231 ], [ -46.036256009899105, -23.794464810015519 ], [ -46.036061536638236, -23.794493975230708 ], [ -46.03568987761782, -23.794547654507433 ] ] } },
{ "type": "Feature", "properties": { "fid": 16 }, "geometry": { "type": "LineString", "coordinates": [ [ -46.033846245739944, -23.796171432877355 ], [ -46.032683139976406, -23.797160269278248 ], [ -46.032592413508013, -23.797282014915218 ], [ -46.032544856982859, -23.797358303215713 ], [ -46.03252846623483, -23.797370319931776 ], [ -46.032469400417142, -23.797380090801131 ], [ -46.03239849534787, -23.797355146311084 ], [ -46.03222944563263, -23.797187152310602 ], [ -46.031517698317856, -23.796610276642831 ], [ -46.031043530857829, -23.796357279174845 ], [ -46.030573091063829, -23.796137053412227 ], [ -46.029849440988578, -23.79592395147812 ], [ -46.029590558007207, -23.795889867012907 ], [ -46.029128526041376, -23.795839025675189 ], [ -46.028736177001534, -23.795832762729255 ], [ -46.028221143953488, -23.795892769248763 ], [ -46.028110732326894, -23.795854378281081 ], [ -46.028055102267558, -23.795729474055339 ], [ -46.027924968637038, -23.794949103320622 ], [ -46.027819545904826, -23.794724603048049 ] ] } },
{ "type": "Feature", "properties": { "fid": 17 }, "geometry": { "type": "LineString", "coordinates": [ [ -46.032917057213027, -23.79803321923475 ], [ -46.032635844970265, -23.797603252617126 ], [ -46.032469400417142, -23.797380090801131 ] ] } },
{ "type": "Feature", "properties": { "fid": 18 }, "geometry": { "type": "LineString", "coordinates": [ [ -46.04007350197832, -23.797307337359953 ], [ -46.040023511415214, -23.797422894916849 ], [ -46.039595703400991, -23.799472443381866 ], [ -46.039770908966496, -23.799833182764409 ], [ -46.040182615898352, -23.800230599272926 ], [ -46.040602837594193, -23.800689827801278 ], [ -46.040703667442216, -23.800869376890923 ], [ -46.040759147803058, -23.801010176986075 ], [ -46.040743555707323, -23.801141937546294 ], [ -46.040705570238103, -23.801276308881242 ], [ -46.04061590389604, -23.801394326475506 ], [ -46.04047277430864, -23.801471653299 ], [ -46.040319913135328, -23.801506800300835 ], [ -46.038309027346266, -23.801894268198343 ], [ -46.03770700563696, -23.801909580630792 ], [ -46.037401938085701, -23.801916265021227 ], [ -46.037125431157229, -23.801913844471972 ], [ -46.036672215266577, -23.801893038036617 ], [ -46.036298349956141, -23.801867312785603 ], [ -46.036096507456421, -23.801723357725315 ], [ -46.03600923731144, -23.801511183846017 ], [ -46.036072554616332, -23.801287233266379 ], [ -46.036199789573345, -23.80117422447989 ], [ -46.03669376111246, -23.800989592802008 ], [ -46.038563972801306, -23.800440956066019 ], [ -46.039047714437096, -23.800261840258415 ], [ -46.039309961620695, -23.800069561722783 ], [ -46.039413838166098, -23.799855318930117 ], [ -46.039504583473139, -23.799534321351825 ] ] } },
{ "type": "Feature", "properties": { "fid": 19 }, "geometry": { "type": "LineString", "coordinates": [ [ -46.046462156134005, -23.802040204985978 ], [ -46.046333159333685, -23.801929637403543 ], [ -46.046209437740352, -23.801800406859087 ], [ -46.046126772970261, -23.801633180393697 ], [ -46.045993972075372, -23.801398166428392 ], [ -46.045793100461275, -23.801158818445682 ], [ -46.045587192503504, -23.801013905392875 ], [ -46.044623425024135, -23.800715531953269 ], [ -46.043850649247297, -23.800430976972446 ], [ -46.043585768930193, -23.800188261888369 ], [ -46.043219420175888, -23.79963035508894 ], [ -46.043109674430511, -23.799329123181394 ], [ -46.043168212461026, -23.798876881882752 ], [ -46.043455842869882, -23.797798023513842 ] ] } },
{ "type": "Feature", "properties": { "fid": 20 }, "geometry": { "type": "LineString", "coordinates": [ [ -46.046053795052579, -23.803393035879921 ], [ -46.045838551399797, -23.80326581546203 ], [ -46.045412686782377, -23.80305631481022 ], [ -46.045076129869834, -23.803159090396125 ], [ -46.044931128753639, -23.803319658827416 ], [ -46.044030010149626, -23.804638261601603 ], [ -46.04365981471387, -23.805243070596667 ], [ -46.043643734338161, -23.805422534264263 ], [ -46.043595019143453, -23.805809380456438 ], [ -46.043812595592222, -23.806204158907772 ], [ -46.044021585409524, -23.806445450702128 ], [ -46.04430749168251, -23.806721087574189 ], [ -46.044567929197534, -23.806902958579204 ], [ -46.044719323874503, -23.807010916061692 ], [ -46.044755344736529, -23.807067355721379 ] ] } },
{ "type": "Feature", "properties": { "fid": 21 }, "geometry": { "type": "LineString", "coordinates": [ [ -46.037579044620216, -23.80691211976891 ], [ -46.038554624812662, -23.805774742164814 ], [ -46.038546441592857, -23.805681126832482 ], [ -46.038494525352, -23.805588999942461 ], [ -46.03840788061256, -23.805512471762537 ], [ -46.038084328498989, -23.805339392124825 ], [ -46.037854972536032, -23.805200811697521 ], [ -46.037679643001177, -23.805146893090036 ], [ -46.037440694899857, -23.805149479239955 ], [ -46.037067382153126, -23.805167726710316 ], [ -46.036474678237624, -23.805165343229742 ], [ -46.036109246049527, -23.805109757759993 ], [ -46.035768812674178, -23.804996393269768 ], [ -46.035316012600305, -23.804836206568961 ], [ -46.035050150194436, -23.804688882836601 ], [ -46.034477891532156, -23.804185275443363 ], [ -46.034177432326537, -23.803746724997612 ], [ -46.034040593571859, -23.803510729100545 ], [ -46.033934889787254, -23.803409709555421 ], [ -46.033862925779907, -23.803388498377654 ], [ -46.033706498248982, -23.803374964841211 ], [ -46.03352629173969, -23.803399575443596 ], [ -46.033397436186533, -23.803472344057134 ], [ -46.033047971553998, -23.804034281439943 ] ] } },
{ "type": "Feature", "properties": { "fid": 22 }, "geometry": { "type": "LineString", "coordinates": [ [ -46.028773969430247, -23.79952809071089 ], [ -46.028483727235873, -23.800064347805694 ], [ -46.028244043948426, -23.800529020999527 ], [ -46.027835951451799, -23.801252262130305 ] ] } },
{ "type": "Feature", "properties": { "fid": 23 }, "geometry": { "type": "LineString", "coordinates": [ [ -46.027674042016464, -23.80147253442707 ], [ -46.026481130617945, -23.803653753024953 ] ] } },
{ "type": "Feature", "properties": { "fid": 24 }, "geometry": { "type": "LineString", "coordinates": [ [ -46.036051295511456, -23.808646610339416 ], [ -46.036198259678123, -23.808494485768311 ], [ -46.037353703342944, -23.807073381723029 ] ] } },
{ "type": "Feature", "properties": { "fid": 25 }, "geometry": { "type": "LineString", "coordinates": [ [ -46.039867649475475, -23.808782891048157 ], [ -46.039672335513103, -23.808891566455415 ], [ -46.039450874767965, -23.80916932728114 ], [ -46.039440721062739, -23.809266524016447 ], [ -46.039401114121908, -23.809360657089339 ], [ -46.039317538276151, -23.809380506423285 ], [ -46.039200850949285, -23.80945619258226 ], [ -46.038722866512899, -23.810059113507315 ], [ -46.038342596300254, -23.81045428504952 ], [ -46.038117262630351, -23.810515924264028 ], [ -46.037746771979656, -23.810554778332783 ], [ -46.037396660760592, -23.810490911720468 ], [ -46.037201464080638, -23.810292761671153 ], [ -46.036979116592029, -23.809868933200892 ], [ -46.037047410230748, -23.809458873807653 ], [ -46.037226102265009, -23.809286446363682 ], [ -46.037446253094622, -23.809135896584198 ], [ -46.037965743517439, -23.808845778650507 ], [ -46.038093710561839, -23.808760837693889 ], [ -46.038188894276871, -23.808699931300545 ], [ -46.038227118093246, -23.80864133303017 ], [ -46.038237670843877, -23.808604007819465 ], [ -46.038257158604303, -23.808489119435826 ], [ -46.038236312066843, -23.808440294372634 ], [ -46.038192672775018, -23.808334208275639 ], [ -46.038167440903919, -23.808316214285725 ], [ -46.037542320647788, -23.807907572018699 ], [ -46.037203824955689, -23.807802647003726 ], [ -46.036992214178916, -23.807815761753812 ], [ -46.036775984619887, -23.807783934750766 ] ] } },
{ "type": "Feature", "properties": { "fid": 26 }, "geometry": { "type": "LineString", "coordinates": [ [ -46.036775984619887, -23.807783934750766 ], [ -46.036657741665252, -23.807665969699332 ], [ -46.036549065170782, -23.807606085482995 ], [ -46.036359897273371, -23.807562801868947 ], [ -46.036196570871056, -23.807527695592263 ], [ -46.035967116287303, -23.807496687023907 ], [ -46.035831132121181, -23.807472109705575 ], [ -46.035775160226237, -23.807379010897616 ], [ -46.035766814263141, -23.807301296382438 ], [ -46.03574379035225, -23.807168262388259 ], [ -46.035653418511174, -23.807058959648153 ], [ -46.034814689459253, -23.806563308749485 ], [ -46.034275901027833, -23.806262984797023 ], [ -46.034056540004151, -23.80604310310791 ], [ -46.034008122454331, -23.805907975076476 ], [ -46.033923359465476, -23.805748206699242 ], [ -46.033710497060355, -23.805490028451388 ], [ -46.033563169549353, -23.805383030808493 ], [ -46.033389226490371, -23.805293572732037 ], [ -46.03272040232244, -23.804886396722466 ], [ -46.032538907601989, -23.804838966092955 ], [ -46.032490227586891, -23.804827313218386 ] ] } },
{ "type": "Feature", "properties": { "fid": 27 }, "geometry": { "type": "LineString", "coordinates": [ [ -46.032837585852867, -23.804272841980296 ], [ -46.032679012720564, -23.804466020785679 ], [ -46.032490227586891, -23.804827313218386 ], [ -46.031946165070316, -23.805525983993604 ], [ -46.031438111807368, -23.806281095971595 ], [ -46.03139005617367, -23.806405087045512 ] ] } },
{ "type": "Feature", "properties": { "fid": 28 }, "geometry": { "type": "LineString", "coordinates": [ [ -46.035831132121181, -23.807472109705575 ], [ -46.03572694381868, -23.807518904187845 ], [ -46.03557521180899, -23.807542363738197 ], [ -46.035184347489604, -23.807683931039158 ], [ -46.034900492822828, -23.807898932108614 ], [ -46.034685288380878, -23.808062617831332 ], [ -46.034383719678566, -23.808171758104219 ], [ -46.034270410283568, -23.808166554795264 ], [ -46.034169881324331, -23.80815444772211 ], [ -46.033840919228496, -23.808061759577171 ], [ -46.033494443953757, -23.807893146443515 ], [ -46.032964129059707, -23.807608794904265 ], [ -46.03283157559521, -23.807449541783793 ], [ -46.032759972875525, -23.807197279842541 ], [ -46.032776002643139, -23.806926143185272 ], [ -46.032722936651894, -23.806455151138557 ], [ -46.032491771622553, -23.806001303570479 ], [ -46.032245072514073, -23.805770889180927 ], [ -46.032110971326063, -23.805663070874054 ], [ -46.031913338779596, -23.805574773524931 ] ] } },
{ "type": "Feature", "properties": { "fid": 29 }, "geometry": { "type": "LineString", "coordinates": [ [ -46.031913338779596, -23.805574773524931 ], [ -46.031687757807191, -23.805444200682128 ], [ -46.031517675033108, -23.805325775732925 ], [ -46.03141695096906, -23.805283730959982 ], [ -46.031336905266421, -23.805306413273595 ], [ -46.031238934778273, -23.80529292351115 ], [ -46.031133543844511, -23.805259724198027 ], [ -46.031082968356628, -23.805185847446285 ], [ -46.031103682677831, -23.805051326206016 ], [ -46.030997699816396, -23.804928319326077 ], [ -46.030759237964674, -23.804492645614392 ], [ -46.030507405717692, -23.803974067339517 ], [ -46.030349666474606, -23.803597567948721 ], [ -46.030184667504358, -23.803430543161184 ], [ -46.029791609132978, -23.803196965546121 ], [ -46.028691525440649, -23.802614788645954 ], [ -46.027581061573059, -23.802054027072373 ], [ -46.027469589293744, -23.802019368308923 ], [ -46.02737624782106, -23.802017053574673 ] ] } },
{ "type": "Feature", "properties": { "fid": 30 }, "geometry": { "type": "LineString", "coordinates": [ [ -46.031238934778273, -23.80529292351115 ], [ -46.031035835267524, -23.805367843824975 ], [ -46.030440834842906, -23.805488427407312 ], [ -46.029676851691512, -23.805678147208727 ], [ -46.029401258180833, -23.80573371851516 ], [ -46.029241941247342, -23.80575336326357 ], [ -46.028948029311159, -23.805712889809865 ], [ -46.02883627393247, -23.805656246849626 ], [ -46.028495616612446, -23.805467093422472 ], [ -46.028266601021528, -23.805296696317427 ], [ -46.027978702315025, -23.805020542782501 ], [ -46.027848734174441, -23.804760280087372 ], [ -46.027837495418126, -23.804570286462049 ], [ -46.027880172262037, -23.80418198679002 ], [ -46.027964304954544, -23.803815567631567 ], [ -46.027929450998904, -23.803647816444336 ], [ -46.027846083554046, -23.803452509824822 ], [ -46.0276100147804, -23.803276436691057 ], [ -46.027426350966252, -23.803144791001227 ], [ -46.027198789442906, -23.803030531341008 ], [ -46.026960838370066, -23.80293769484458 ], [ -46.026869477602155, -23.802943675747304 ] ] } },
{ "type": "Feature", "properties": { "fid": 31 }, "geometry": { "type": "LineString", "coordinates": [ [ -46.026869477602155, -23.802943675747304 ], [ -46.026747092029588, -23.802912423306115 ], [ -46.026676319940378, -23.802825738302737 ], [ -46.02660618922814, -23.802775073430745 ], [ -46.026421698413607, -23.802722931726212 ], [ -46.026128683802092, -23.802694621217274 ], [ -46.025654187861811, -23.802764332531787 ], [ -46.02525074147124, -23.802942713483439 ], [ -46.025045643618959, -23.803062977227544 ], [ -46.02475080309641, -23.80320957571498 ], [ -46.024490021089008, -23.803258720890362 ], [ -46.024283249051884, -23.803247071485561 ], [ -46.023938275127314, -23.803180412212569 ], [ -46.023603579407705, -23.803054442422727 ], [ -46.023336564888787, -23.802872943894574 ], [ -46.023103166426878, -23.802587908061259 ], [ -46.023027724366962, -23.802364605286684 ], [ -46.023024517887748, -23.802039042758953 ], [ -46.023063577583272, -23.801900942722146 ], [ -46.023021496948445, -23.801452493240809 ], [ -46.022907739009725, -23.801150274145495 ], [ -46.022790873168574, -23.800950926187323 ], [ -46.022570650648888, -23.80071885840918 ], [ -46.022222458988303, -23.800571718341082 ], [ -46.022126521012559, -23.800558708304077 ], [ -46.021991518778755, -23.800538336529904 ], [ -46.021926586362447, -23.800476957807 ], [ -46.021926640545594, -23.800423170282702 ], [ -46.021970119011733, -23.800300076684998 ], [ -46.021991677437441, -23.800231512454697 ], [ -46.02193935923929, -23.800179132123102 ], [ -46.02188017910963, -23.800151012547396 ], [ -46.021629123792863, -23.800096872287543 ], [ -46.02149053913201, -23.800127450006968 ], [ -46.021159803813504, -23.800255482502823 ], [ -46.020790448297042, -23.800382236650012 ], [ -46.020129835118787, -23.800604629678855 ], [ -46.019885615127464, -23.800625850445854 ], [ -46.019539817109703, -23.800638686377301 ], [ -46.019180209978458, -23.80056253181154 ], [ -46.018679433340886, -23.800327033446148 ], [ -46.018499283150625, -23.800152377244004 ], [ -46.018272373512822, -23.799928662566966 ], [ -46.018176575419425, -23.799853911922792 ], [ -46.018124425615653, -23.799785629156396 ], [ -46.018122619927404, -23.799715454763557 ], [ -46.01819480211077, -23.799666984790079 ], [ -46.018210778077972, -23.799549260585948 ], [ -46.018159239658438, -23.799471161081545 ], [ -46.01799542861653, -23.799192814876832 ], [ -46.017787358181018, -23.799063278861805 ], [ -46.017598791950498, -23.798964317758383 ], [ -46.017431173977791, -23.798952071182431 ], [ -46.017158394871451, -23.798982388266182 ], [ -46.01696718780628, -23.799038219089834 ] ] } },
{ "type": "Feature", "properties": { "fid": 32 }, "geometry": { "type": "LineString", "coordinates": [ [ -46.016531345245006, -23.799155017783455 ], [ -46.016449385084648, -23.799069631380263 ], [ -46.016341696945126, -23.799013950446227 ], [ -46.01625792970259, -23.799003851225265 ], [ -46.016074891556826, -23.79900783636548 ], [ -46.015595123006072, -23.799096178465156 ], [ -46.015403691047538, -23.799221696091607 ], [ -46.015232039306504, -23.799399774455811 ], [ -46.014983702978199, -23.799619265289557 ], [ -46.014772876402034, -23.799752093152108 ], [ -46.014587390920447, -23.79979534351931 ], [ -46.014409296620528, -23.799812466985333 ], [ -46.014055888698771, -23.79977564416939 ], [ -46.013384201835024, -23.799455351252792 ], [ -46.013250456961764, -23.799315713514357 ], [ -46.012958745709071, -23.798923032746917 ], [ -46.012896638247668, -23.79854549424201 ], [ -46.012890379811807, -23.798077715164954 ], [ -46.012842940160795, -23.797755498664916 ], [ -46.01270758807005, -23.797575621789839 ], [ -46.012458878420176, -23.797444312765762 ], [ -46.012217946890409, -23.797346748771048 ], [ -46.01200296287, -23.797295252722741 ], [ -46.011803869123604, -23.797279445107339 ] ] } },
{ "type": "Feature", "properties": { "fid": 33 }, "geometry": { "type": "LineString", "coordinates": [ [ -46.01158756067295, -23.797064233405518 ], [ -46.011493880337703, -23.796982013648432 ], [ -46.01133524097289, -23.796938035222439 ], [ -46.010547098997904, -23.796769167597446 ], [ -46.01036317525309, -23.796760977112278 ], [ -46.010282854205073, -23.796761662985585 ], [ -46.010192476341309, -23.796751969074016 ], [ -46.010133191498944, -23.796685958241657 ], [ -46.010112801514275, -23.796643213256555 ], [ -46.010072490461162, -23.796609644809603 ], [ -46.009657320804017, -23.796308931251488 ], [ -46.009450235000507, -23.796183601709416 ], [ -46.009186362172393, -23.796044668047276 ], [ -46.009027280565697, -23.795994602796572 ], [ -46.008744399872178, -23.795922850692932 ], [ -46.008577038162407, -23.795886742655004 ], [ -46.008342160833344, -23.795890254894577 ], [ -46.008146789744607, -23.795907216433601 ], [ -46.008008205847673, -23.795937782014455 ], [ -46.007752375077402, -23.796000039169492 ], [ -46.007651521195051, -23.796019716632976 ], [ -46.007629595782774, -23.79607424417987 ], [ -46.007546046689576, -23.796139913397109 ], [ -46.007454169317704, -23.796127865814384 ], [ -46.007382273416397, -23.79605285422792 ], [ -46.007336575004452, -23.796000060115009 ], [ -46.007289124417042, -23.79596876562173 ], [ -46.006999285396894, -23.79573792171804 ], [ -46.00676866949825, -23.795626877226841 ], [ -46.00667537656733, -23.795604526549546 ], [ -46.0065816632167, -23.795621928625764 ], [ -46.006527792250544, -23.795620978476716 ], [ -46.006486617974055, -23.795621077465082 ], [ -46.006428162743596, -23.795621021675075 ], [ -46.006375516086038, -23.795600438010545 ], [ -46.006341206497879, -23.795576276770198 ], [ -46.006298256449895, -23.795552038130346 ], [ -46.006219244483908, -23.795525137838791 ], [ -46.006173126146486, -23.795512096170452 ], [ -46.005736387807907, -23.795425396134494 ], [ -46.005475673820079, -23.795420721148638 ], [ -46.005388128874834, -23.795431629639747 ], [ -46.005294415444709, -23.79544903093608 ], [ -46.005204758187453, -23.795467403985377 ], [ -46.005133858873748, -23.795442446746318 ], [ -46.005081465020481, -23.795398010936388 ], [ -46.005051548645092, -23.795343018952025 ], [ -46.004960980717989, -23.795303385832618 ], [ -46.00480226114702, -23.795267351102098 ], [ -46.004623620369436, -23.795240492050656 ], [ -46.004411665191455, -23.795239526576552 ], [ -46.004231761011361, -23.795331925559868 ], [ -46.003892255401595, -23.795567419376724 ], [ -46.003681653623495, -23.795630543372873 ], [ -46.00330979810154, -23.795704848301341 ], [ -46.003032201769344, -23.795614423999641 ], [ -46.002805223815386, -23.79554409816873 ], [ -46.002424147572775, -23.795145915852913 ], [ -46.002260925278655, -23.794911522574829 ], [ -46.002146465215972, -23.794872140846749 ], [ -46.002040667556876, -23.794878673926132 ], [ -46.001991656142167, -23.794898813473399 ] ] } },
{ "type": "Feature", "properties": { "fid": 34 }, "geometry": { "type": "LineString", "coordinates": [ [ -46.010192476341309, -23.796751969074016 ], [ -46.010090127750097, -23.79710605731108 ], [ -46.010003752177767, -23.797487883866623 ], [ -46.009836250045048, -23.797850276728088 ], [ -46.009653094455864, -23.797961829620004 ], [ -46.00948683505495, -23.798013664630457 ], [ -46.009239785066192, -23.798014263286284 ], [ -46.00904702667485, -23.797976058020133 ], [ -46.008442470172533, -23.797847174015882 ], [ -46.007988837452508, -23.797674736196107 ], [ -46.007857548244878, -23.797495826567843 ], [ -46.007794448130262, -23.797213692124789 ], [ -46.007775151401702, -23.796730828149908 ], [ -46.007667049294085, -23.796378132332041 ], [ -46.007454169317704, -23.796127865814384 ] ] } },
{ "type": "Feature", "properties": { "fid": 35 }, "geometry": { "type": "LineString", "coordinates": [ [ -46.005204758187453, -23.795467403985377 ], [ -46.005025053303868, -23.795781039430494 ], [ -46.004667293801738, -23.796540222918679 ], [ -46.004212594845413, -23.797045029397662 ], [ -46.003850500170046, -23.797253192604614 ], [ -46.003347952657037, -23.797284229923832 ], [ -46.002800954806517, -23.797288673910664 ], [ -46.002284969071511, -23.797244751126282 ], [ -46.001854670758057, -23.797173533035796 ], [ -46.001407385883184, -23.796978681615862 ] ] } },
{ "type": "Feature", "properties": { "fid": 36 }, "geometry": { "type": "LineString", "coordinates": [ [ -46.006737080515464, -23.794720612164852 ], [ -46.006636153329531, -23.79493953889774 ], [ -46.006612582934558, -23.795053452593539 ], [ -46.006593620257149, -23.79521230909549 ], [ -46.006580274386629, -23.795320701653289 ], [ -46.006589321729614, -23.795426488396181 ], [ -46.006591649124204, -23.795494797005254 ], [ -46.006527792250544, -23.795620978476716 ], [ -46.006469599100505, -23.795788370397766 ], [ -46.006421018314143, -23.795960057907536 ], [ -46.0062903067005, -23.79667914578031 ] ] } },
{ "type": "Feature", "properties": { "fid": 37 }, "geometry": { "type": "LineString", "coordinates": [ [ -46.019378053309104, -23.792108242496706 ], [ -46.018861567445612, -23.793423387016258 ], [ -46.017420378945573, -23.79709911573029 ], [ -46.016293336321887, -23.799962556975249 ] ] } }
]
}
