{
"type": "FeatureCollection",
"name": "Cul_de_sac",
"crs": { "type": "name", "properties": { "name": "urn:ogc:def:crs:OGC:1.3:CRS84" } },
"features": [
{ "type": "Feature", "properties": { "fid": 1 }, "geometry": { "type": "Point", "coordinates": [ -46.014204896446103, -23.795612832008334 ] } },
{ "type": "Feature", "properties": { "fid": 2 }, "geometry": { "type": "Point", "coordinates": [ -46.011446584148445, -23.794910277399783 ] } },
{ "type": "Feature", "properties": { "fid": 3 }, "geometry": { "type": "Point", "coordinates": [ -46.008086785065863, -23.793455804613238 ] } },
{ "type": "Feature", "properties": { "fid": 4 }, "geometry": { "type": "Point", "coordinates": [ -46.00897979202864, -23.791489760644378 ] } },
{ "type": "Feature", "properties": { "fid": 5 }, "geometry": { "type": "Point", "coordinates": [ -46.007996405273765, -23.791498271024984 ] } },
{ "type": "Feature", "properties": { "fid": 6 }, "geometry": { "type": "Point", "coordinates": [ -46.008340492676908, -23.78919149192868 ] } },
{ "type": "Feature", "properties": { "fid": 7 }, "geometry": { "type": "Point", "coordinates": [ -46.010421390954434, -23.788663791113709 ] } },
{ "type": "Feature", "properties": { "fid": 8 }, "geometry": { "type": "Point", "coordinates": [ -46.006603427715419, -23.787845733358502 ] } },
{ "type": "Feature", "properties": { "fid": 9 }, "geometry": { "type": "Point", "coordinates": [ -46.00650158224164, -23.78668650022351 ] } },
{ "type": "Feature", "properties": { "fid": 10 }, "geometry": { "type": "Point", "coordinates": [ -46.005610885239534, -23.788265509537137 ] } },
{ "type": "Feature", "properties": { "fid": 11 }, "geometry": { "type": "Point", "coordinates": [ -46.01766602190461, -23.794542831063001 ] } },
{ "type": "Feature", "properties": { "fid": 12 }, "geometry": { "type": "Point", "coordinates": [ -46.016548871673209, -23.795234721063633 ] } },
{ "type": "Feature", "properties": { "fid": 13 }, "geometry": { "type": "Point", "coordinates": [ -46.021284714848719, -23.795143451687096 ] } },
{ "type": "Feature", "properties": { "fid": 14 }, "geometry": { "type": "Point", "coordinates": [ -46.020730941735501, -23.796427586838682 ] } },
{ "type": "Feature", "properties": { "fid": 15 }, "geometry": { "type": "Point", "coordinates": [ -46.02179298505731, -23.793300451467935 ] } },
{ "type": "Feature", "properties": { "fid": 16 }, "geometry": { "type": "Point", "coordinates": [ -46.022995849943534, -23.792500538424143 ] } },
{ "type": "Feature", "properties": { "fid": 17 }, "geometry": { "type": "Point", "coordinates": [ -46.021635217986862, -23.791059833394886 ] } },
{ "type": "Feature", "properties": { "fid": 18 }, "geometry": { "type": "Point", "coordinates": [ -46.018643250417647, -23.792263175840851 ] } },
{ "type": "Feature", "properties": { "fid": 19 }, "geometry": { "type": "Point", "coordinates": [ -46.016745384051674, -23.791477845975088 ] } },
{ "type": "Feature", "properties": { "fid": 20 }, "geometry": { "type": "Point", "coordinates": [ -46.014363406490993, -23.792503415701784 ] } },
{ "type": "Feature", "properties": { "fid": 21 }, "geometry": { "type": "Point", "coordinates": [ -46.012397214215213, -23.792319383399587 ] } },
{ "type": "Feature", "properties": { "fid": 22 }, "geometry": { "type": "Point", "coordinates": [ -46.013351047855522, -23.792583731921713 ] } },
{ "type": "Feature", "properties": { "fid": 23 }, "geometry": { "type": "Point", "coordinates": [ -46.014351131076531, -23.789224564476754 ] } },
{ "type": "Feature", "properties": { "fid": 24 }, "geometry": { "type": "Point", "coordinates": [ -46.016175959407278, -23.788514900325758 ] } },
{ "type": "Feature", "properties": { "fid": 25 }, "geometry": { "type": "Point", "coordinates": [ -46.017537763394465, -23.790513895585207 ] } },
{ "type": "Feature", "properties": { "fid": 26 }, "geometry": { "type": "Point", "coordinates": [ -46.030632046653011, -23.802032253763649 ] } },
{ "type": "Feature", "properties": { "fid": 27 }, "geometry": { "type": "Point", "coordinates": [ -46.030507294049315, -23.797748239823481 ] } },
{ "type": "Feature", "properties": { "fid": 28 }, "geometry": { "type": "Point", "coordinates": [ -46.029302886450289, -23.797328381564292 ] } },
{ "type": "Feature", "properties": { "fid": 29 }, "geometry": { "type": "Point", "coordinates": [ -46.025016999172628, -23.799450513015042 ] } },
{ "type": "Feature", "properties": { "fid": 30 }, "geometry": { "type": "Point", "coordinates": [ -46.02592698602561, -23.797297209330228 ] } },
{ "type": "Feature", "properties": { "fid": 31 }, "geometry": { "type": "Point", "coordinates": [ -46.032749156786721, -23.793174000378464 ] } },
{ "type": "Feature", "properties": { "fid": 32 }, "geometry": { "type": "Point", "coordinates": [ -46.029519163733369, -23.793102089097893 ] } },
{ "type": "Feature", "properties": { "fid": 33 }, "geometry": { "type": "Point", "coordinates": [ -46.031572370291286, -23.793866640612855 ] } },
{ "type": "Feature", "properties": { "fid": 34 }, "geometry": { "type": "Point", "coordinates": [ -46.039372610764232, -23.795405077720858 ] } },
{ "type": "Feature", "properties": { "fid": 35 }, "geometry": { "type": "Point", "coordinates": [ -46.039773118149284, -23.794497695235357 ] } },
{ "type": "Feature", "properties": { "fid": 36 }, "geometry": { "type": "Point", "coordinates": [ -46.036218788959559, -23.795458154754954 ] } },
{ "type": "Feature", "properties": { "fid": 37 }, "geometry": { "type": "Point", "coordinates": [ -46.031917458210437, -23.801166346994432 ] } },
{ "type": "Feature", "properties": { "fid": 38 }, "geometry": { "type": "Point", "coordinates": [ -46.034378119956159, -23.798483597599642 ] } },
{ "type": "Feature", "properties": { "fid": 39 }, "geometry": { "type": "Point", "coordinates": [ -46.035399875875463, -23.798676372859955 ] } },
{ "type": "Feature", "properties": { "fid": 40 }, "geometry": { "type": "Point", "coordinates": [ -46.035923590790617, -23.797827374956597 ] } },
{ "type": "Feature", "properties": { "fid": 41 }, "geometry": { "type": "Point", "coordinates": [ -46.036567182721399, -23.797182416024537 ] } },
{ "type": "Feature", "properties": { "fid": 42 }, "geometry": { "type": "Point", "coordinates": [ -46.038701144061477, -23.797569657879201 ] } },
{ "type": "Feature", "properties": { "fid": 43 }, "geometry": { "type": "Point", "coordinates": [ -46.039893209910346, -23.802537433061953 ] } },
{ "type": "Feature", "properties": { "fid": 44 }, "geometry": { "type": "Point", "coordinates": [ -46.039532708359992, -23.80338366052521 ] } },
{ "type": "Feature", "properties": { "fid": 45 }, "geometry": { "type": "Point", "coordinates": [ -46.038622139870945, -23.803249416404512 ] } },
{ "type": "Feature", "properties": { "fid": 46 }, "geometry": { "type": "Point", "coordinates": [ -46.037567999470561, -23.802841697830193 ] } },
{ "type": "Feature", "properties": { "fid": 47 }, "geometry": { "type": "Point", "coordinates": [ -46.03244511800424, -23.802095666247045 ] } },
{ "type": "Feature", "properties": { "fid": 48 }, "geometry": { "type": "Point", "coordinates": [ -46.031612984337947, -23.80251117256098 ] } },
{ "type": "Feature", "properties": { "fid": 49 }, "geometry": { "type": "Point", "coordinates": [ -46.037186612170167, -23.806074976172479 ] } },
{ "type": "Feature", "properties": { "fid": 50 }, "geometry": { "type": "Point", "coordinates": [ -46.039779365483476, -23.806869852562613 ] } },
{ "type": "Feature", "properties": { "fid": 51 }, "geometry": { "type": "Point", "coordinates": [ -46.040018157904235, -23.807917289428524 ] } },
{ "type": "Feature", "properties": { "fid": 52 }, "geometry": { "type": "Point", "coordinates": [ -46.035201391748281, -23.797030831080864 ] } },
{ "type": "Feature", "properties": { "fid": 53 }, "geometry": { "type": "Point", "coordinates": [ -46.034867141684288, -23.793820509252651 ] } },
{ "type": "Feature", "properties": { "fid": 54 }, "geometry": { "type": "Point", "coordinates": [ -46.004591139954641, -23.793220097298875 ] } },
{ "type": "Feature", "properties": { "fid": 55 }, "geometry": { "type": "Point", "coordinates": [ -46.026356591839864, -23.795314823068789 ] } }
]
}
