{
"type": "FeatureCollection",
"name": "Parque_linear",
"crs": { "type": "name", "properties": { "name": "urn:ogc:def:crs:OGC:1.3:CRS84" } },
"features": [
{ "type": "Feature", "properties": { "fid": 1 }, "geometry": { "type": "MultiPolygon", "coordinates": [ [ [ [ -46.027329697762909, -23.789013613405974 ], [ -46.02731747258192, -23.788991756489988 ], [ -46.027251156882492, -23.788965914416153 ], [ -46.027212540738624, -23.788964638248359 ], [ -46.027186093004289, -23.788966275771308 ], [ -46.027167064115119, -23.788987623062088 ], [ -46.027132451875673, -23.789041105638962 ], [ -46.027016342022897, -23.789306214676031 ], [ -46.026794592841689, -23.78980705846898 ], [ -46.026530675034607, -23.790403412691749 ], [ -46.025724650560136, -23.792097399453791 ], [ -46.025380442750951, -23.792885744152382 ], [ -46.025287325700155, -23.79306569596308 ], [ -46.025186608655765, -23.793218920439692 ], [ -46.025221045363025, -23.793231151594952 ], [ -46.025255745962269, -23.793242449630259 ], [ -46.025300281851635, -23.793261084233528 ], [ -46.025418150843016, -23.793315211907199 ], [ -46.025424137244535, -23.793301700860649 ], [ -46.025427247342904, -23.793271560286421 ], [ -46.025438439867258, -23.793197525271829 ], [ -46.025434157537696, -23.793120781088501 ], [ -46.025908511371824, -23.79208662859654 ], [ -46.026217747009177, -23.791483191874388 ], [ -46.02650013934047, -23.790821520167633 ], [ -46.027281643862295, -23.789137603388472 ], [ -46.027321533337613, -23.789065458474841 ], [ -46.027329532085275, -23.789029514479846 ], [ -46.027329697762909, -23.789013613405974 ] ] ] ] } },
{ "type": "Feature", "properties": { "fid": 2 }, "geometry": { "type": "MultiPolygon", "coordinates": [ [ [ [ -46.025017134125335, -23.794335044013206 ], [ -46.024956429196742, -23.794331467425209 ], [ -46.024902905754828, -23.794321640031093 ], [ -46.024859606022801, -23.794306290304668 ], [ -46.024812819285053, -23.794284127785314 ], [ -46.024752363340724, -23.79425669950869 ], [ -46.024711133283859, -23.794237860116993 ], [ -46.024712384678409, -23.794264063593168 ], [ -46.024719249143651, -23.794312533458577 ], [ -46.024677844705174, -23.79443213814665 ], [ -46.024586448411263, -23.794617483595598 ], [ -46.024148244429149, -23.795546714754032 ], [ -46.024035289972467, -23.79580062441109 ], [ -46.023778625038403, -23.796332960778933 ], [ -46.02351257004193, -23.796936775146932 ], [ -46.023272209480311, -23.797465045492011 ], [ -46.023149667995355, -23.797760497009872 ], [ -46.02283690492623, -23.79840692753362 ], [ -46.022748086392248, -23.798563997673792 ], [ -46.022689730047205, -23.798651646806405 ], [ -46.022679200448543, -23.798662077363108 ], [ -46.02269102266682, -23.798673875029404 ], [ -46.022712318831573, -23.798678974568556 ], [ -46.022735115377472, -23.798686425990798 ], [ -46.022794378098709, -23.798706594725843 ], [ -46.022832344660102, -23.798721663918286 ], [ -46.022870047317433, -23.79873766620932 ], [ -46.02290598568797, -23.798752249714848 ], [ -46.022914098520111, -23.798754192385186 ], [ -46.022931932163949, -23.798652854563759 ], [ -46.02292872128691, -23.79859529638092 ], [ -46.022971531154631, -23.798463076049082 ], [ -46.023208395426984, -23.797977805578505 ], [ -46.024001593727071, -23.796252847238534 ], [ -46.024073238017102, -23.796060779350498 ], [ -46.024279814146418, -23.795651946007897 ], [ -46.024463106707948, -23.79523355218177 ], [ -46.024664040731871, -23.79482934573419 ], [ -46.0247631048491, -23.794639858512024 ], [ -46.024810635200936, -23.794517735471693 ], [ -46.024861806864223, -23.794436336383555 ], [ -46.024915202487115, -23.794385358841971 ], [ -46.025017134125335, -23.794335044013206 ] ] ] ] } },
{ "type": "Feature", "properties": { "fid": 3 }, "geometry": { "type": "MultiPolygon", "coordinates": [ [ [ [ -46.022544284676933, -23.799606149020271 ], [ -46.022473213861964, -23.799597101019963 ], [ -46.022407338283038, -23.799577341369897 ], [ -46.022360855485616, -23.799550269797646 ], [ -46.022305731998507, -23.799523121725084 ], [ -46.022272918927975, -23.799501316065161 ], [ -46.022274144946266, -23.799627144075234 ], [ -46.022186802300659, -23.799958921077589 ], [ -46.022167105977509, -23.800043872077246 ], [ -46.022191486255096, -23.800045724928442 ], [ -46.022277527989999, -23.799886993460689 ], [ -46.022348956359032, -23.799764614898574 ], [ -46.022419538852738, -23.799698823151584 ], [ -46.022544284676933, -23.799606149020271 ] ] ] ] } },
{ "type": "Feature", "properties": { "fid": 4 }, "geometry": { "type": "MultiPolygon", "coordinates": [ [ [ [ -46.0220814188921, -23.800484642849487 ], [ -46.022125302349622, -23.80044433954896 ], [ -46.022133344674913, -23.800404420535635 ], [ -46.022135021880068, -23.800268328354338 ], [ -46.022136256364, -23.800198882602178 ], [ -46.022128559126323, -23.800157187224261 ], [ -46.022104581964591, -23.800165393950667 ], [ -46.022071604430259, -23.800232220074275 ], [ -46.02201965159945, -23.800339336130005 ], [ -46.021959849682098, -23.800443576346275 ], [ -46.021959517102943, -23.80047537848197 ], [ -46.022000971148771, -23.800497260700158 ], [ -46.022043605603834, -23.800503484678224 ], [ -46.0220814188921, -23.800484642849487 ] ] ] ] } },
{ "type": "Feature", "properties": { "fid": 5 }, "geometry": { "type": "MultiPolygon", "coordinates": [ [ [ [ -46.021579889066736, -23.801511294719603 ], [ -46.021823719659288, -23.800871271896991 ], [ -46.021910984338852, -23.800692907122624 ], [ -46.021961993822842, -23.800627409983001 ], [ -46.021868639007558, -23.800586125489502 ], [ -46.021872793097756, -23.80060206481123 ], [ -46.021878809124225, -23.80063439088072 ], [ -46.021855735720791, -23.800677684707381 ], [ -46.021771986938312, -23.800908699285667 ], [ -46.021639700990455, -23.801211780882198 ], [ -46.021541585779502, -23.801382565880221 ], [ -46.021473474879301, -23.801454927264267 ], [ -46.021490937310702, -23.801462097746938 ], [ -46.021515984874654, -23.801473077177935 ], [ -46.021547867378672, -23.801486689605198 ], [ -46.021579889066736, -23.801511294719603 ] ] ] ] } }
]
}
