{
"type": "FeatureCollection",
"name": "Vagas_verdes_linear",
"crs": { "type": "name", "properties": { "name": "urn:ogc:def:crs:OGC:1.3:CRS84" } },
"features": [
{ "type": "Feature", "properties": { "fid": 1 }, "geometry": { "type": "MultiLineString", "coordinates": [ [ [ -46.047937042234423, -23.797906001612787 ], [ -46.046175348358354, -23.797795274659556 ], [ -46.041300990206793, -23.797266374527403 ], [ -46.038970605482092, -23.796899901726217 ], [ -46.035084017714311, -23.796216670615109 ], [ -46.032479151403443, -23.795656860739225 ], [ -46.029525790968748, -23.794981684260776 ], [ -46.027532852032913, -23.794432789214227 ], [ -46.026040465378685, -23.794043571636948 ] ] ] } },
{ "type": "Feature", "properties": { "fid": 2 }, "geometry": { "type": "MultiLineString", "coordinates": [ [ [ -46.011334847901821, -23.78858471723381 ], [ -46.005147383915379, -23.785380634764888 ] ] ] } },
{ "type": "Feature", "properties": { "fid": 3 }, "geometry": { "type": "MultiLineString", "coordinates": [ [ [ -46.024307261016688, -23.793449219127627 ], [ -46.018894150672409, -23.791579019963255 ], [ -46.013128941912782, -23.789177893019197 ], [ -46.012114275573552, -23.788707668391528 ] ] ] } },
{ "type": "Feature", "properties": { "fid": 4 }, "geometry": { "type": "MultiLineString", "coordinates": [ [ [ -46.039655362965554, -23.808664340841634 ], [ -46.038405935367599, -23.807767561145493 ], [ -46.036994583230658, -23.80680013063883 ], [ -46.035214913873681, -23.805664820734012 ], [ -46.034218808578139, -23.805051791911346 ], [ -46.032680770246948, -23.804149623727252 ], [ -46.029808042554201, -23.802545341805189 ], [ -46.028333643722732, -23.801785874662436 ], [ -46.026737234885104, -23.801029057989805 ], [ -46.024015137867771, -23.799811392920496 ], [ -46.023111712582896, -23.799483481832016 ] ] ] } },
{ "type": "Feature", "properties": { "fid": 5 }, "geometry": { "type": "MultiLineString", "coordinates": [ [ [ -46.021815259900364, -23.798921966285516 ], [ -46.020039998038598, -23.798261714646905 ], [ -46.017696864939424, -23.797465436465139 ], [ -46.016647108876384, -23.797134315312984 ], [ -46.014508826375341, -23.796486672819317 ], [ -46.011814019561555, -23.79578539271677 ], [ -46.007909482840546, -23.794889898141882 ], [ -46.005167933741276, -23.794384525108612 ] ] ] } }
]
}
