{
"type": "FeatureCollection",
"name": "Pontos_de_interesse",
"crs": { "type": "name", "properties": { "name": "urn:ogc:def:crs:OGC:1.3:CRS84" } },
"features": [
{ "type": "Feature", "properties": { "id": null, "Name": "Forte São João", "description": null, "timestamp": null, "begin": null, "end": null, "altitudeMode": null, "tessellate": -1, "extrude": 0, "visibility": -1, "drawOrder": null, "icon": null }, "geometry": { "type": "Point", "coordinates": [ -46.13407676168022, -23.85468152122618, 0.0 ] } },
{ "type": "Feature", "properties": { "id": null, "Name": "Praia da Enseada", "description": null, "timestamp": null, "begin": null, "end": null, "altitudeMode": null, "tessellate": -1, "extrude": 0, "visibility": -1, "drawOrder": null, "icon": null }, "geometry": { "type": "Point", "coordinates": [ -46.118304152807667, -23.835448785726509, 0.0 ] } },
{ "type": "Feature", "properties": { "id": null, "Name": "Reserva Natural SESC", "description": null, "timestamp": null, "begin": null, "end": null, "altitudeMode": null, "tessellate": -1, "extrude": 0, "visibility": -1, "drawOrder": null, "icon": null }, "geometry": { "type": "Point", "coordinates": [ -46.118072780182239, -23.824287422051469, 0.0 ] } },
{ "type": "Feature", "properties": { "id": null, "Name": "Trilha do Rio Jaceguava", "description": null, "timestamp": null, "begin": null, "end": null, "altitudeMode": null, "tessellate": -1, "extrude": 0, "visibility": -1, "drawOrder": null, "icon": null }, "geometry": { "type": "Point", "coordinates": [ -46.171736417149397, -23.834974721172522, 0.0 ] } },
{ "type": "Feature", "properties": { "id": null, "Name": "Praia da Vista Linda", "description": null, "timestamp": null, "begin": null, "end": null, "altitudeMode": null, "tessellate": -1, "extrude": 0, "visibility": -1, "drawOrder": null, "icon": null }, "geometry": { "type": "Point", "coordinates": [ -46.091865690705532, -23.823664030700101, 0.0 ] } },
{ "type": "Feature", "properties": { "id": null, "Name": "Praia de Indaiá", "description": null, "timestamp": null, "begin": null, "end": null, "altitudeMode": null, "tessellate": -1, "extrude": 0, "visibility": -1, "drawOrder": null, "icon": null }, "geometry": { "type": "Point", "coordinates": [ -46.063809627984341, -23.814152012981399, 0.0 ] } },
{ "type": "Feature", "properties": { "id": null, "Name": "Parque Estadual Restinga de Bertioga", "description": null, "timestamp": null, "begin": null, "end": null, "altitudeMode": null, "tessellate": -1, "extrude": 0, "visibility": -1, "drawOrder": null, "icon": null }, "geometry": { "type": "Point", "coordinates": [ -46.076610953267569, -23.775842745511969, 0.0 ] } },
{ "type": "Feature", "properties": { "id": null, "Name": "Vila de Itatinga", "description": null, "timestamp": null, "begin": null, "end": null, "altitudeMode": null, "tessellate": -1, "extrude": 0, "visibility": -1, "drawOrder": null, "icon": null }, "geometry": { "type": "Point", "coordinates": [ -46.112041430295868, -23.77669960091016, 0.0 ] } },
{ "type": "Feature", "properties": { "id": null, "Name": "Cachoeira da Pedra Branca", "description": null, "timestamp": null, "begin": null, "end": null, "altitudeMode": null, "tessellate": -1, "extrude": 0, "visibility": -1, "drawOrder": null, "icon": null }, "geometry": { "type": "Point", "coordinates": [ -46.121864694027252, -23.74748362272442, 0.0 ] } },
{ "type": "Feature", "properties": { "id": null, "Name": "Mirante Vista da Cachoeira do Elefante", "description": null, "timestamp": null, "begin": null, "end": null, "altitudeMode": null, "tessellate": -1, "extrude": 0, "visibility": -1, "drawOrder": null, "icon": null }, "geometry": { "type": "Point", "coordinates": [ -46.037334843365358, -23.72263686494971, 0.0 ] } },
{ "type": "Feature", "properties": { "id": null, "Name": "Vale Verde PESM", "description": null, "timestamp": null, "begin": null, "end": null, "altitudeMode": null, "tessellate": -1, "extrude": 0, "visibility": -1, "drawOrder": null, "icon": null }, "geometry": { "type": "Point", "coordinates": [ -46.039753029374111, -23.75504828598303, 0.0 ] } },
{ "type": "Feature", "properties": { "id": null, "Name": "Novo Terminal de Ônibus ", "description": null, "timestamp": null, "begin": null, "end": null, "altitudeMode": null, "tessellate": -1, "extrude": 0, "visibility": -1, "drawOrder": null, "icon": null }, "geometry": { "type": "Point", "coordinates": [ -46.041787853616569, -23.792143128266058, 0.0 ] } },
{ "type": "Feature", "properties": { "id": null, "Name": "Supermercado, Comércio e Restaurantes", "description": null, "timestamp": null, "begin": null, "end": null, "altitudeMode": null, "tessellate": -1, "extrude": 0, "visibility": -1, "drawOrder": null, "icon": null }, "geometry": { "type": "Point", "coordinates": [ -46.032457845398497, -23.78940053023851, 0.0 ] } },
{ "type": "Feature", "properties": { "id": null, "Name": "Capela Nossa Senhora das Graças", "description": null, "timestamp": null, "begin": null, "end": null, "altitudeMode": null, "tessellate": -1, "extrude": 0, "visibility": -1, "drawOrder": null, "icon": null }, "geometry": { "type": "Point", "coordinates": [ -46.020636611327433, -23.791947771537622, 0.0 ] } },
{ "type": "Feature", "properties": { "id": null, "Name": "Hípica Riviera", "description": null, "timestamp": null, "begin": null, "end": null, "altitudeMode": null, "tessellate": -1, "extrude": 0, "visibility": -1, "drawOrder": null, "icon": null }, "geometry": { "type": "Point", "coordinates": [ -46.043205985864553, -23.797842554307501, 0.0 ] } },
{ "type": "Feature", "properties": { "id": null, "Name": "Riviera Golf Club", "description": null, "timestamp": null, "begin": null, "end": null, "altitudeMode": null, "tessellate": -1, "extrude": 0, "visibility": -1, "drawOrder": null, "icon": null }, "geometry": { "type": "Point", "coordinates": [ -46.034219990932527, -23.802068185175809, 0.0 ] } },
{ "type": "Feature", "properties": { "id": null, "Name": "Shopping Riviera", "description": null, "timestamp": null, "begin": null, "end": null, "altitudeMode": null, "tessellate": -1, "extrude": 0, "visibility": -1, "drawOrder": null, "icon": null }, "geometry": { "type": "Point", "coordinates": [ -46.024056096967477, -23.797821082450088, 0.0 ] } },
{ "type": "Feature", "properties": { "id": null, "Name": "Riviera Tênis e Beach Tennis", "description": null, "timestamp": null, "begin": null, "end": null, "altitudeMode": null, "tessellate": -1, "extrude": 0, "visibility": -1, "drawOrder": null, "icon": null }, "geometry": { "type": "Point", "coordinates": [ -46.019529106837162, -23.79689052019361, 0.0 ] } },
{ "type": "Feature", "properties": { "id": null, "Name": "Praia da Riviera", "description": null, "timestamp": null, "begin": null, "end": null, "altitudeMode": null, "tessellate": -1, "extrude": 0, "visibility": -1, "drawOrder": null, "icon": null }, "geometry": { "type": "Point", "coordinates": [ -46.01681085808589, -23.802059791508292, 0.0 ] } },
{ "type": "Feature", "properties": { "id": null, "Name": "Possível Parque/Área Verde", "description": null, "timestamp": null, "begin": null, "end": null, "altitudeMode": null, "tessellate": -1, "extrude": 0, "visibility": -1, "drawOrder": null, "icon": null }, "geometry": { "type": "Point", "coordinates": [ -46.003750016830182, -23.793733515269931, 0.0 ] } },
{ "type": "Feature", "properties": { "id": null, "Name": "Praia de Itaguaré", "description": null, "timestamp": null, "begin": null, "end": null, "altitudeMode": null, "tessellate": -1, "extrude": 0, "visibility": -1, "drawOrder": null, "icon": null }, "geometry": { "type": "Point", "coordinates": [ -45.992053643042453, -23.79242062943678, 0.0 ] } },
{ "type": "Feature", "properties": { "id": null, "Name": "Trilha de Itaguaré", "description": null, "timestamp": null, "begin": null, "end": null, "altitudeMode": null, "tessellate": -1, "extrude": 0, "visibility": -1, "drawOrder": null, "icon": null }, "geometry": { "type": "Point", "coordinates": [ -45.970294042212899, -23.777734031843561, 0.0 ] } },
{ "type": "Feature", "properties": { "id": null, "Name": "Praia de Guaratuba", "description": null, "timestamp": null, "begin": null, "end": null, "altitudeMode": null, "tessellate": -1, "extrude": 0, "visibility": -1, "drawOrder": null, "icon": null }, "geometry": { "type": "Point", "coordinates": [ -45.94033689599042, -23.774367111176829, 0.0 ] } },
{ "type": "Feature", "properties": { "id": null, "Name": "Trilha ou Bicitrilha para a Cachoeira de Guaratuba", "description": null, "timestamp": null, "begin": null, "end": null, "altitudeMode": null, "tessellate": -1, "extrude": 0, "visibility": -1, "drawOrder": null, "icon": null }, "geometry": { "type": "Point", "coordinates": [ -45.925908190483227, -23.75981133004796, 0.0 ] } },
{ "type": "Feature", "properties": { "id": null, "Name": "Poço do Limão", "description": null, "timestamp": null, "begin": null, "end": null, "altitudeMode": null, "tessellate": -1, "extrude": 0, "visibility": -1, "drawOrder": null, "icon": null }, "geometry": { "type": "Point", "coordinates": [ -45.938353624474743, -23.725939856366558, 0.0 ] } },
{ "type": "Feature", "properties": { "id": null, "Name": "Foz do Rio Guaratuba", "description": null, "timestamp": null, "begin": null, "end": null, "altitudeMode": null, "tessellate": -1, "extrude": 0, "visibility": -1, "drawOrder": null, "icon": null }, "geometry": { "type": "Point", "coordinates": [ -45.896336200458919, -23.762363657055332, 0.0 ] } },
{ "type": "Feature", "properties": { "id": null, "Name": "Futuro Centro Náutico", "description": null, "timestamp": null, "begin": null, "end": null, "altitudeMode": null, "tessellate": -1, "extrude": 0, "visibility": -1, "drawOrder": null, "icon": null }, "geometry": { "type": "Point", "coordinates": [ -46.041085385050359, -23.810596666551621, 0.0 ] } },
{ "type": "Feature", "properties": { "id": null, "Name": "Limite 15 km", "description": null, "timestamp": null, "begin": null, "end": null, "altitudeMode": null, "tessellate": -1, "extrude": 0, "visibility": -1, "drawOrder": null, "icon": null }, "geometry": { "type": "Point", "coordinates": [ -45.881867431290082, -23.761867484196731, 0.0 ] } },
{ "type": "Feature", "properties": { "id": null, "Name": "limite 15 km", "description": null, "timestamp": null, "begin": null, "end": null, "altitudeMode": null, "tessellate": -1, "extrude": 0, "visibility": -1, "drawOrder": null, "icon": null }, "geometry": { "type": "Point", "coordinates": [ -46.157571580159129, -23.85772417174168, 0.0 ] } },
{ "type": "Feature", "properties": { "id": null, "Name": "Limite 15 km", "description": null, "timestamp": null, "begin": null, "end": null, "altitudeMode": null, "tessellate": -1, "extrude": 0, "visibility": -1, "drawOrder": null, "icon": null }, "geometry": { "type": "Point", "coordinates": [ -46.076362191041873, -23.69264231654315, 0.0 ] } }
]
}
